{
  "type": "FeatureCollection",
  "features": [
    {
      "type": "Feature",
      "properties": {
        "norad_id": 30436,
        "name": "FENGYUN 1C DEB",
        "group": "fengyun-1c-debris",
        "lat": -69.99840600951318,
        "lon": -85.6976408943394,
        "alt_km": 895.0647838375417,
        "timestamp": "2025-12-22T16:55:17.739558+00:00",
        "meta_object_name": "FENGYUN 1C DEB",
        "meta_object_id": "1999-025AEX",
        "meta_epoch": "2025-12-22T04:27:48.030048",
        "meta_mean_motion": 14.2236687,
        "meta_eccentricity": 0.00981397,
        "meta_inclination": 98.4268,
        "meta_ra_of_asc_node": 249.7738,
        "meta_arg_of_pericenter": 105.8488,
        "meta_mean_anomaly": 45.9504,
        "meta_ephemeris_type": 0,
        "meta_classification_type": "U",
        "meta_norad_cat_id": 30436,
        "meta_element_set_no": 999,
        "meta_rev_at_epoch": 96571,
        "meta_bstar": 0.0020674814,
        "meta_mean_motion_dot": 4.794e-05,
        "meta_mean_motion_ddot": 0,
        "tle_line1": "1 30436U 99025AEX 25356.18597257  .00004794  00000+0  20675-2 0  9991",
        "tle_line2": "2 30436  98.4268 249.7738 0098139 105.8488  45.9504 14.22366870965713"
      },
      "geometry": {
        "type": "Point",
        "coordinates": [
          -85.6976408943394,
          -69.99840600951318
        ]
      }
    },
    {
      "type": "Feature",
      "properties": {
        "norad_id": 30437,
        "name": "FENGYUN 1C DEB",
        "group": "fengyun-1c-debris",
        "lat": -34.88111210797335,
        "lon": -168.57688857846892,
        "alt_km": 629.2175423033204,
        "timestamp": "2025-12-22T16:55:17.739569+00:00",
        "meta_object_name": "FENGYUN 1C DEB",
        "meta_object_id": "1999-025AEY",
        "meta_epoch": "2025-12-21T13:14:33.175104",
        "meta_mean_motion": 14.88361749,
        "meta_eccentricity": 0.0035441,
        "meta_inclination": 98.9201,
        "meta_ra_of_asc_node": 16.4123,
        "meta_arg_of_pericenter": 74.7782,
        "meta_mean_anomaly": 84.3933,
        "meta_ephemeris_type": 0,
        "meta_classification_type": "U",
        "meta_norad_cat_id": 30437,
        "meta_element_set_no": 999,
        "meta_rev_at_epoch": 99318,
        "meta_bstar": 0.0017148,
        "meta_mean_motion_dot": 0.00016028,
        "meta_mean_motion_ddot": 0,
        "tle_line1": "1 30437U 99025AEY 25355.55177286  .00016028  00000+0  17148-2 0  9992",
        "tle_line2": "2 30437  98.9201  16.4123 0035441  74.7782  84.3933 14.88361749993188"
      },
      "geometry": {
        "type": "Point",
        "coordinates": [
          -168.57688857846892,
          -34.88111210797335
        ]
      }
    },
    {
      "type": "Feature",
      "properties": {
        "norad_id": 30438,
        "name": "FENGYUN 1C DEB",
        "group": "fengyun-1c-debris",
        "lat": -3.6725618961991024,
        "lon": -167.3877914723381,
        "alt_km": 834.3723606805743,
        "timestamp": "2025-12-22T16:55:17.739579+00:00",
        "meta_object_name": "FENGYUN 1C DEB",
        "meta_object_id": "1999-025AEZ",
        "meta_epoch": "2025-12-21T12:26:56.029056",
        "meta_mean_motion": 13.92128421,
        "meta_eccentricity": 0.0134908,
        "meta_inclination": 98.7497,
        "meta_ra_of_asc_node": 12.0584,
        "meta_arg_of_pericenter": 162.7821,
        "meta_mean_anomaly": 197.7982,
        "meta_ephemeris_type": 0,
        "meta_classification_type": "U",
        "meta_norad_cat_id": 30438,
        "meta_element_set_no": 999,
        "meta_rev_at_epoch": 95428,
        "meta_bstar": 0.00082837,
        "meta_mean_motion_dot": 1.102e-05,
        "meta_mean_motion_ddot": 0,
        "tle_line1": "1 30438U 99025AEZ 25355.51870404  .00001102  00000+0  82837-3 0  9996",
        "tle_line2": "2 30438  98.7497  12.0584 0134908 162.7821 197.7982 13.92128421954280"
      },
      "geometry": {
        "type": "Point",
        "coordinates": [
          -167.3877914723381,
          -3.6725618961991024
        ]
      }
    },
    {
      "type": "Feature",
      "properties": {
        "norad_id": 30439,
        "name": "FENGYUN 1C DEB",
        "group": "fengyun-1c-debris",
        "lat": -9.063312310593226,
        "lon": 9.534977315769158,
        "alt_km": 846.8573448583884,
        "timestamp": "2025-12-22T16:55:17.739589+00:00",
        "meta_object_name": "FENGYUN 1C DEB",
        "meta_object_id": "1999-025AFA",
        "meta_epoch": "2025-12-22T07:03:28.174176",
        "meta_mean_motion": 14.08856189,
        "meta_eccentricity": 0.00383296,
        "meta_inclination": 98.7496,
        "meta_ra_of_asc_node": 7.7284,
        "meta_arg_of_pericenter": 309.3443,
        "meta_mean_anomaly": 117.9705,
        "meta_ephemeris_type": 0,
        "meta_classification_type": "U",
        "meta_norad_cat_id": 30439,
        "meta_element_set_no": 999,
        "meta_rev_at_epoch": 96926,
        "meta_bstar": 0.00040396063,
        "meta_mean_motion_dot": 6.59e-06,
        "meta_mean_motion_ddot": 0,
        "tle_line1": "1 30439U 99025AFA 25356.29407609  .00000659  00000+0  40396-3 0  9996",
        "tle_line2": "2 30439  98.7496   7.7284 0038329 309.3443 117.9705 14.08856189969265"
      },
      "geometry": {
        "type": "Point",
        "coordinates": [
          9.534977315769158,
          -9.063312310593226
        ]
      }
    },
    {
      "type": "Feature",
      "properties": {
        "norad_id": 30441,
        "name": "FENGYUN 1C DEB",
        "group": "fengyun-1c-debris",
        "lat": -34.35200303197004,
        "lon": 92.0069750326337,
        "alt_km": 985.1941079654616,
        "timestamp": "2025-12-22T16:55:17.739599+00:00",
        "meta_object_name": "FENGYUN 1C DEB",
        "meta_object_id": "1999-025AFC",
        "meta_epoch": "2025-12-21T04:29:22.650144",
        "meta_mean_motion": 13.77688739,
        "meta_eccentricity": 0.01842116,
        "meta_inclination": 99.1342,
        "meta_ra_of_asc_node": 84.2335,
        "meta_arg_of_pericenter": 235.2533,
        "meta_mean_anomaly": 123.1155,
        "meta_ephemeris_type": 0,
        "meta_classification_type": "U",
        "meta_norad_cat_id": 30441,
        "meta_element_set_no": 999,
        "meta_rev_at_epoch": 94986,
        "meta_bstar": 0.00046413752,
        "meta_mean_motion_dot": 4.82e-06,
        "meta_mean_motion_ddot": 0,
        "tle_line1": "1 30441U 99025AFC 25355.18706771  .00000482  00000+0  46414-3 0  9999",
        "tle_line2": "2 30441  99.1342  84.2335 0184211 235.2533 123.1155 13.77688739949860"
      },
      "geometry": {
        "type": "Point",
        "coordinates": [
          92.0069750326337,
          -34.35200303197004
        ]
      }
    },
    {
      "type": "Feature",
      "properties": {
        "norad_id": 30442,
        "name": "FENGYUN 1C DEB",
        "group": "fengyun-1c-debris",
        "lat": 37.83357650508154,
        "lon": 83.4995252585479,
        "alt_km": 823.8045316110574,
        "timestamp": "2025-12-22T16:55:17.739609+00:00",
        "meta_object_name": "FENGYUN 1C DEB",
        "meta_object_id": "1999-025AFD",
        "meta_epoch": "2025-12-22T04:58:33.552192",
        "meta_mean_motion": 14.28699815,
        "meta_eccentricity": 0.00557419,
        "meta_inclination": 98.8668,
        "meta_ra_of_asc_node": 89.957,
        "meta_arg_of_pericenter": 259.8714,
        "meta_mean_anomaly": 99.6176,
        "meta_ephemeris_type": 0,
        "meta_classification_type": "U",
        "meta_norad_cat_id": 30442,
        "meta_element_set_no": 999,
        "meta_rev_at_epoch": 97297,
        "meta_bstar": 0.0021302255,
        "meta_mean_motion_dot": 5.405e-05,
        "meta_mean_motion_ddot": 0,
        "tle_line1": "1 30442U 99025AFD 25356.20733278  .00005405  00000+0  21302-2 0  9994",
        "tle_line2": "2 30442  98.8668  89.9570 0055741 259.8714  99.6176 14.28699815972971"
      },
      "geometry": {
        "type": "Point",
        "coordinates": [
          83.4995252585479,
          37.83357650508154
        ]
      }
    },
    {
      "type": "Feature",
      "properties": {
        "norad_id": 30443,
        "name": "FENGYUN 1C DEB",
        "group": "fengyun-1c-debris",
        "lat": 42.236925630863986,
        "lon": 132.22887277948493,
        "alt_km": 784.3890900943898,
        "timestamp": "2025-12-22T16:55:17.739619+00:00",
        "meta_object_name": "FENGYUN 1C DEB",
        "meta_object_id": "1999-025AFE",
        "meta_epoch": "2025-12-21T20:13:48.907488",
        "meta_mean_motion": 14.3690449,
        "meta_eccentricity": 0.00269842,
        "meta_inclination": 98.8496,
        "meta_ra_of_asc_node": 303.2111,
        "meta_arg_of_pericenter": 313.0359,
        "meta_mean_anomaly": 46.8566,
        "meta_ephemeris_type": 0,
        "meta_classification_type": "U",
        "meta_norad_cat_id": 30443,
        "meta_element_set_no": 999,
        "meta_rev_at_epoch": 97564,
        "meta_bstar": 0.0018260058,
        "meta_mean_motion_dot": 5.382e-05,
        "meta_mean_motion_ddot": 0,
        "tle_line1": "1 30443U 99025AFE 25355.84292717  .00005382  00000+0  18260-2 0  9995",
        "tle_line2": "2 30443  98.8496 303.2111 0026984 313.0359  46.8566 14.36904490975640"
      },
      "geometry": {
        "type": "Point",
        "coordinates": [
          132.22887277948493,
          42.236925630863986
        ]
      }
    }
  ]
}